[{"OBJECT_NAME":"STARLINK-30460","OBJECT_ID":"2023-144G","EPOCH":"2026-03-09T01:53:44.811168","MEAN_MOTION":15.2718983,"ECCENTRICITY":0.00037788,"INCLINATION":43.0032,"RA_OF_ASC_NODE":288.6845,"ARG_OF_PERICENTER":246.9964,"MEAN_ANOMALY":113.049,"EPHEMERIS_TYPE":0,"CLASSIFICATION_TYPE":"U","NORAD_CAT_ID":57870,"ELEMENT_SET_NO":999,"REV_AT_EPOCH":13755,"BSTAR":0.0019032044,"MEAN_MOTION_DOT":0.00051864,"MEAN_MOTION_DDOT":0},{"OBJECT_NAME":"CZ-6A DEB","OBJECT_ID":"2022-151EM","EPOCH":"2026-03-09T21:12:10.844640","MEAN_MOTION":15.1479521,"ECCENTRICITY":0.00732342,"INCLINATION":98.809,"RA_OF_ASC_NODE":212.6624,"ARG_OF_PERICENTER":10.5605,"MEAN_ANOMALY":349.714,"EPHEMERIS_TYPE":0,"CLASSIFICATION_TYPE":"U","NORAD_CAT_ID":54413,"ELEMENT_SET_NO":999,"REV_AT_EPOCH":17915,"BSTAR":0.0020661814,"MEAN_MOTION_DOT":0.00041137,"MEAN_MOTION_DDOT":0}]
